ONEWEB-0574             
1 56063U 23043T   24081.59495022  .00000075  00000+0  15077-3 0  9997
2 56063  87.9260  46.7004 0001802  85.0728 275.0612 13.21828386 50264
ONEWEB-0575             
1 56064U 23043U   24081.58131481  .00000106  00000+0  24290-3 0  9995
2 56064  87.9122  31.4886 0002517  78.6782 281.4631 13.16594715 51389
ONEWEB-0576             
1 56065U 23043V   24081.41032409  .00000013  00000+0 -90338-6 0  9995
2 56065  87.9120  31.5217 0002275  87.6128 272.5263 13.16594742 51351
ONEWEB-0577             
1 56066U 23043W   24081.56865059  .00000009  00000+0 -10915-4 0  9993
2 56066  87.9120  31.4894 0002823  76.1437 284.0008 13.16594937 51404
ONEWEB-0578             
1 56067U 23043X   24081.43095851 -.00000013  00000+0 -64001-4 0  9996
2 56067  87.9262  46.7285 0001989  86.7305 273.4056 13.21826948 50206
ONEWEB-0579             
1 56068U 23043Y   24081.42149417  .00000001  00000+0 -28632-4 0  9990
2 56068  87.9259  46.7304 0001851  67.9946 292.1385 13.21823884 50215
ONEWEB-0581             
1 56069U 23043Z   24081.57498282  .00000002  00000+0 -28284-4 0  9998
2 56069  87.9121  31.5175 0002393  69.4401 290.6987 13.16594843 51370
ONEWEB-0609             
1 56070U 23043AA  24081.49142019 -.00000006  00000+0 -50260-4 0  9999
2 56070  87.8978  61.9426 0001820  85.2814 274.8524 13.15549895 48929
